satname,norad_id,inclination_deg,eccentricity,mean_motion_rev_per_day,perigee_km,apogee_km,l1,l2
STARLINK-1265,45406,53.0582,0.0001847,15.06397074,545.941412186371,548.4996392563717,1 45406U 20019AY  25258.55372297 -.00001518  00000+0 -83049-4 0  9997,2 45406  53.0582 202.8382 0001847 100.1567 259.9630 15.06397074303461
STARLINK-1278,45408,53.0531,0.0001312,15.06400155,546.3024772171675,548.1196885541167,1 45408U 20019BA  25257.38620505  .00000823  00000+0  74103-4 0  9994,2 45408  53.0531 238.0781 0001312  91.2261 268.8878 15.06400155302871
STARLINK-1296,45412,53.0538,0.0001676,15.06403679,546.0395958275758,548.3609688846209,1 45412U 20019BE  25258.55740829 -.00000013  00000+0  18025-4 0  9994,2 45412  53.0538 202.8190 0001676  94.5355 265.5825 15.06403679303465
STARLINK-1298,45413,53.0478,0.0009829,15.415033,434.96865972941214,448.3750399664423,1 45413U 20019BF  25258.18109110  .00288506  00000+0  65268-2 0  9999,2 45413  53.0478 193.8736 0009829  75.8161 284.3935 15.41503300303652
STARLINK-1309,45414,53.0595,0.0001059,15.06394262,546.4957478630122,547.9625404123417,1 45414U 20019BG  25258.24041986  .00000422  00000+0  47252-4 0  9997,2 45414  53.0595 204.2409 0001059  89.8885 270.2225 15.06394262303407
STARLINK-1316,45415,53.0539,0.0001564,15.06395483,546.1422752476419,548.3085286069654,1 45415U 20019BH  25258.26622214  .00000200  00000+0  32346-4 0  9991,2 45415  53.0539 204.1232 0001564  90.1191 269.9977 15.06395483303444
STARLINK-1318,45416,53.0524,0.0001172,15.55035897,401.25364551352504,402.8429209439146,1 45416U 20019BJ  25258.23250193  .00063819  00000+0  93333-3 0  9999,2 45416  53.0524 188.7571 0001172 116.7779 243.3352 15.55035897303643
STARLINK-1286,45417,53.0507,0.0001275,15.06349653,546.482866924066,548.248870155543,1 45417U 20019BK  25258.37037039  .00014759  00000+0  10090-2 0  9994,2 45417  53.0507 233.6603 0001275  84.8751 275.2384 15.06349653303294
STARLINK-1308,45419,53.0511,0.0001455,15.06397854,546.2104959548433,548.2257742991651,1 45419U 20019BM  25258.30031607  .00000569  00000+0  57126-4 0  9991,2 45419  53.0511 233.9741 0001455  85.3596 274.7560 15.06397854303038
STARLINK-1329,45531,53.0558,0.0001454,15.06393139,546.2256372571201,548.2395347327274,1 45531U 20025A   25257.93725340 -.00000290  00000+0 -56626-6 0  9994,2 45531  53.0558 175.6028 0001454  90.5865 269.5291 15.06393139298601
STARLINK-1338,45532,53.0547,0.0001588,15.06397608,546.11914256828,548.3186355986527,1 45532U 20025B   25258.47908295  .00001718  00000+0  13420-3 0  9993,2 45532  53.0547 173.1691 0001588  88.2405 271.8766 15.06397608298687
STARLINK-1350,45535,53.0732,0.0003033,15.3089246,471.07029322750714,475.22628288324086,1 45535U 20025E   25258.34875520  .00013941  00000+0  47174-3 0  9990,2 45535  53.0732 133.3884 0003033 107.5248 252.6084 15.30892460299252
STARLINK-1362,45538,53.0537,0.0001766,15.06400252,545.9877691757438,548.4338020136165,1 45538U 20025H   25258.17953929 -.00001696  00000+0 -94991-4 0  9990,2 45538  53.0537 174.2320 0001766  95.5318 264.5873 15.06400252298649
STARLINK-1368,45540,53.0548,0.0001279,15.06395609,546.3392619517335,548.1107695553637,1 45540U 20025K   25258.18421073  .00000744  00000+0  68865-4 0  9996,2 45540  53.0548 174.4916 0001279  87.6338 272.4798 15.06395609298632
STARLINK-1371,45542,53.0561,0.0001841,15.06398082,545.9424785865422,548.4923940900017,1 45542U 20025M   25258.48645263  .00000749  00000+0  69211-4 0  9991,2 45542  53.0561 173.1390 0001841  88.4594 271.6606 15.06398082298681
STARLINK-1372,45543,53.0548,0.0001396,15.06397249,546.2532095341767,548.1867692056085,1 45543U 20025N   25258.05889049 -.00001276  00000+0 -66761-4 0  9992,2 45543  53.0548 175.0553 0001396  96.0201 264.0947 15.06397249297715
STARLINK-1373,45544,53.0552,0.0001532,15.06392319,546.1741321914433,548.2960662026362,1 45544U 20025P   25258.47540281  .00005083  00000+0  35998-3 0  9996,2 45544  53.0552 173.1891 0001532  91.9119 268.2045 15.06392319298684
STARLINK-1294,45551,53.0516,0.0005209,15.49688186,414.0975862708301,421.177424150359,1 45551U 20025W   25258.35900242  .00299909  00000+0  51259-2 0  9997,2 45551  53.0516 122.9043 0005209 173.4694 186.6383 15.49688186299385
STARLINK-1323,45553,53.0375,0.0007197,15.86634674,306.9111502913056,316.54053886979545,1 45553U 20025Y   25258.58341435  .00209720  00000+0  79067-3 0  9997,2 45553  53.0375 106.2381 0007197  83.6762  71.7437 15.86634674  5738
STARLINK-1325,45554,53.0612,7.71e-05,15.45754664,428.63670082894805,429.6863862643622,1 45554U 20025Z   25258.33925629  .00103818  00000+0  20924-2 0  9992,2 45554  53.0612 114.5868 0000771 201.2913 158.8062 15.45754664299500
STARLINK-1327,45555,53.0574,0.0001905,15.06404182,545.8794642816356,548.5180171988577,1 45555U 20025AA  25258.44775373  .00002230  00000+0  16853-3 0  9997,2 45555  53.0574 153.3105 0001905  88.2269 271.8938 15.06404182298950
STARLINK-1336,45557,53.0402,0.000894,15.8150441,320.19192850910713,332.1792573052253,1 45557U 20025AC  25258.58341435  .00278993  00000+0  13296-2 0  9990,2 45557  53.0402 111.5721 0008940  98.8578 270.1420 15.81504410  5613
STARLINK-1342,45558,53.0452,0.0005623,15.90762532,296.3926501761489,303.90304931817354,1 45558U 20025AD  25258.58341435  .00331827  52109-4  10498-2 0  9990,2 45558  53.0452 108.5663 0005623  99.0010 121.8591 15.90762532  5745
STARLINK-1355,45563,53.0307,0.0008491,16.06503373,250.81942284324032,262.0862833317533,1 45563U 20025AJ  25258.66327095  .00678406  24165-3  87675-3 0  9990,2 45563  53.0307  37.3658 0008491 316.3483  43.6877 16.06503373300591
STARLINK-1356,45564,53.0533,0.0001345,15.06407956,546.2557179500609,548.1186301528805,1 45564U 20025AK  25258.45143274  .00005143  00000+0  36383-3 0  9993,2 45564  53.0533 153.2933 0001345  84.8037 275.3106 15.06407956298954
STARLINK-1357,45565,53.0679,0.0008735,15.24560194,486.10524642964447,498.10756165650673,1 45565U 20025AL  25258.41762066  .00075023  00000+0  29872-2 0  9994,2 45565  53.0679 145.5101 0008735  92.1214 268.0783 15.24560194299063
STARLINK-1361,45567,53.0542,0.0001451,15.06394413,546.2238107811627,548.233551901888,1 45567U 20025AN  25258.40352479  .00001836  00000+0  14214-3 0  9994,2 45567  53.0542 153.5098 0001451  89.8749 270.2407 15.06394413298956
STARLINK-1363,45568,53.0533,0.0001563,15.06410234,546.0977653026475,548.2626194569857,1 45568U 20025AP  25258.41829474  .00003375  00000+0  24527-3 0  9998,2 45568  53.0533 153.6855 0001563  86.4217 273.6950 15.06410234298945
STARLINK-1366,45569,53.0556,0.0001355,15.06390798,546.3013723354143,548.1781494376146,1 45569U 20025AQ  25258.40720643  .00000502  00000+0  52581-4 0  9997,2 45569  53.0556 153.4892 0001355  94.6666 265.4478 15.06390798298944
STARLINK-1376,45570,53.0539,0.0001494,15.0639387,546.1956956876775,548.2649954505332,1 45570U 20025AR  25257.93541239  .00001902  00000+0  14654-3 0  9991,2 45570  53.0539 155.6096 0001494  88.7836 271.3324 15.06393870298876
STARLINK-1320,45572,53.0608,0.0008626,15.34364031,456.90914873231577,468.7111507550535,1 45572U 20025AT  25258.01663001  .00064737  00000+0  19108-2 0  9998,2 45572  53.0608 109.1220 0008626 145.7317 214.4242 15.34364031299551
STARLINK-1321,45573,53.0554,0.0001459,15.06406064,546.1825670709804,548.2033783570178,1 45573U 20025AU  25258.38600251  .00001498  00000+0  11939-3 0  9997,2 45573  53.0554 143.5887 0001459  94.1148 266.0008 15.06406064298788
STARLINK-1328,45576,53.054,0.0001975,15.53113243,406.30255917674367,408.9829421782615,1 45576U 20025AX  25258.40247706  .00271737  00000+0  41271-2 0  9991,2 45576  53.0540 137.5007 0001975 138.6975 221.4184 15.53113243299189
STARLINK-1331,45578,53.0541,0.0001531,15.06391411,546.1776072168595,548.2981570057609,1 45578U 20025AZ  25258.09851606  .00004067  00000+0  29182-3 0  9996,2 45578  53.0541 144.8761 0001531  95.5419 264.5744 15.06391411299051
STARLINK-1333,45580,53.0529,0.0001417,15.06391954,546.2548924942294,548.2175432641752,1 45580U 20025BB  25257.97227524  .00001694  00000+0  13260-3 0  9994,2 45580  53.0529 155.4462 0001417  88.5564 271.5587 15.06391954298887
STARLINK-1335,45581,53.0536,0.0001505,15.06398469,546.173984572586,548.2585159009077,1 45581U 20025BC  25258.10957130  .00002250  00000+0  16988-3 0  9993,2 45581  53.0536 144.8276 0001505  85.4646 274.6514 15.06398469299047
STARLINK-1337,45582,53.0543,0.0001295,15.06401811,546.3091755701998,548.102839409139,1 45582U 20025BD  25258.06534261  .00002598  00000+0  19320-3 0  9993,2 45582  53.0543 145.0283 0001295  78.1269 281.9865 15.06401811299038
STARLINK-1347,45586,53.06,0.0007918,15.23864792,488.7548474335981,499.63787454405974,1 45586U 20025BH  25258.39354180  .00094740  00000+0  38380-2 0  9999,2 45586  53.0600 135.9032 0007918  98.9636 261.2257 15.23864792299184
STARLINK-1349,45587,53.0377,0.0005013,16.18056391,221.5241738570976,228.14431282567148,1 45587U 20025BJ  25258.54045772  .01397103  16125-2  84225-3 0  9999,2 45587  53.0377  88.2039 0005013 287.6813  72.3677 16.18056391299877
STARLINK-1360,45588,53.0501,0.000109,15.65774643,370.27615879239147,371.74747323428164,1 45588U 20025BK  25258.18058942  .00090644  00000+0  87406-3 0  9998,2 45588  53.0501  69.8110 0001090 307.2592  52.8323 15.65774643300104
STARLINK-1364,45589,53.0552,0.0001426,15.06405736,546.206425782736,548.181530177656,1 45589U 20025BL  25258.06901868  .00003277  00000+0  23873-3 0  9994,2 45589  53.0552 145.0137 0001426  88.3314 271.7838 15.06405736299030
STARLINK-1365,45590,53.0556,0.0001881,15.06389862,545.9399657140657,548.5452935307285,1 45590U 20025BM  25258.48277674 -.00000354  00000+0 -48508-5 0  9992,2 45590  53.0556 173.1539 0001881  91.0613 269.0591 15.06389862298690
STARLINK-1443,45660,53.0539,0.0001409,15.06400518,546.2341889552154,548.1857517314593,1 45660U 20035D   25258.06994445  .00001668  00000+0  13084-3 0  9993,2 45660  53.0539 135.0086 0001409  90.0433 270.0717 15.06400518292269
